CCSDS_OMM_VERS = 2.0
CREATION_DATE  = 
ORIGINATOR     = 

OBJECT_NAME    = STARLINK-37041
OBJECT_ID      = 2026-044D
CENTER_NAME    = EARTH
REF_FRAME      = TEME
TIME_SYSTEM    = UTC
MEAN_ELEMENT_THEORY = SGP/SGP4

EPOCH          = 2026-03-21T12:00:00.999648
MEAN_MOTION    = 15.76560734
ECCENTRICITY   = .00017993
INCLINATION    = 97.2840
RA_OF_ASC_NODE = 41.2267
ARG_OF_PERICENTER = 87.1805
MEAN_ANOMALY   = 118.9389

EPHEMERIS_TYPE = 0
CLASSIFICATION_TYPE = U
NORAD_CAT_ID   = 68104
ELEMENT_SET_NO = 999
REV_AT_EPOCH   = 325
BSTAR          = -.11609597E-1
MEAN_MOTION_DOT = -.1604607E-1
MEAN_MOTION_DDOT = 0

CCSDS_OMM_VERS = 2.0
CREATION_DATE  = 
ORIGINATOR     = 

OBJECT_NAME    = STARLINK-37021
OBJECT_ID      = 2026-044E
CENTER_NAME    = EARTH
REF_FRAME      = TEME
TIME_SYSTEM    = UTC
MEAN_ELEMENT_THEORY = SGP/SGP4

EPOCH          = 2026-03-21T12:00:00.999648
MEAN_MOTION    = 15.77453318
ECCENTRICITY   = .00019658
INCLINATION    = 97.2840
RA_OF_ASC_NODE = 41.2283
ARG_OF_PERICENTER = 97.3299
MEAN_ANOMALY   = 115.5244

EPHEMERIS_TYPE = 0
CLASSIFICATION_TYPE = U
NORAD_CAT_ID   = 68105
ELEMENT_SET_NO = 999
REV_AT_EPOCH   = 325
BSTAR          = -.13343694E-1
MEAN_MOTION_DOT = -.1915213E-1
MEAN_MOTION_DDOT = 0

CCSDS_OMM_VERS = 2.0
CREATION_DATE  = 
ORIGINATOR     = 

OBJECT_NAME    = STARLINK-37024
OBJECT_ID      = 2026-044F
CENTER_NAME    = EARTH
REF_FRAME      = TEME
TIME_SYSTEM    = UTC
MEAN_ELEMENT_THEORY = SGP/SGP4

EPOCH          = 2026-03-21T12:00:00.999648
MEAN_MOTION    = 15.77840043
ECCENTRICITY   = .00019126
INCLINATION    = 97.2838
RA_OF_ASC_NODE = 41.2303
ARG_OF_PERICENTER = 114.2196
MEAN_ANOMALY   = 103.8823

EPHEMERIS_TYPE = 0
CLASSIFICATION_TYPE = U
NORAD_CAT_ID   = 68106
ELEMENT_SET_NO = 999
REV_AT_EPOCH   = 325
BSTAR          = -.13594095E-1
MEAN_MOTION_DOT = -.1975689E-1
MEAN_MOTION_DDOT = 0

CCSDS_OMM_VERS = 2.0
CREATION_DATE  = 
ORIGINATOR     = 

OBJECT_NAME    = STARLINK-37005
OBJECT_ID      = 2026-044G
CENTER_NAME    = EARTH
REF_FRAME      = TEME
TIME_SYSTEM    = UTC
MEAN_ELEMENT_THEORY = SGP/SGP4

EPOCH          = 2026-03-21T12:00:00.999648
MEAN_MOTION    = 15.77161292
ECCENTRICITY   = .00016768
INCLINATION    = 97.2841
RA_OF_ASC_NODE = 41.2247
ARG_OF_PERICENTER = 96.3407
MEAN_ANOMALY   = 107.0550

EPHEMERIS_TYPE = 0
CLASSIFICATION_TYPE = U
NORAD_CAT_ID   = 68107
ELEMENT_SET_NO = 999
REV_AT_EPOCH   = 325
BSTAR          = -.13585688E-1
MEAN_MOTION_DOT = -.1923095E-1
MEAN_MOTION_DDOT = 0

CCSDS_OMM_VERS = 2.0
CREATION_DATE  = 
ORIGINATOR     = 

OBJECT_NAME    = STARLINK-37017
OBJECT_ID      = 2026-044H
CENTER_NAME    = EARTH
REF_FRAME      = TEME
TIME_SYSTEM    = UTC
MEAN_ELEMENT_THEORY = SGP/SGP4

EPOCH          = 2026-03-21T12:00:00.999648
MEAN_MOTION    = 15.77349664
ECCENTRICITY   = .00020703
INCLINATION    = 97.2839
RA_OF_ASC_NODE = 41.2324
ARG_OF_PERICENTER = 100.6476
MEAN_ANOMALY   = 120.4208

EPHEMERIS_TYPE = 0
CLASSIFICATION_TYPE = U
NORAD_CAT_ID   = 68108
ELEMENT_SET_NO = 999
REV_AT_EPOCH   = 325
BSTAR          = -.1358288E-1
MEAN_MOTION_DOT = -.1937239E-1
MEAN_MOTION_DDOT = 0

CCSDS_OMM_VERS = 2.0
CREATION_DATE  = 
ORIGINATOR     = 

OBJECT_NAME    = STARLINK-36833
OBJECT_ID      = 2026-044J
CENTER_NAME    = EARTH
REF_FRAME      = TEME
TIME_SYSTEM    = UTC
MEAN_ELEMENT_THEORY = SGP/SGP4

EPOCH          = 2026-03-21T12:00:00.999648
MEAN_MOTION    = 15.77238511
ECCENTRICITY   = .00020827
INCLINATION    = 97.2840
RA_OF_ASC_NODE = 41.2354
ARG_OF_PERICENTER = 115.0589
MEAN_ANOMALY   = 114.2017

EPHEMERIS_TYPE = 0
CLASSIFICATION_TYPE = U
NORAD_CAT_ID   = 68109
ELEMENT_SET_NO = 999
REV_AT_EPOCH   = 330
BSTAR          = -.13332642E-1
MEAN_MOTION_DOT = -.1898033E-1
MEAN_MOTION_DDOT = 0

CCSDS_OMM_VERS = 2.0
CREATION_DATE  = 
ORIGINATOR     = 

OBJECT_NAME    = STARLINK-36830
OBJECT_ID      = 2026-044K
CENTER_NAME    = EARTH
REF_FRAME      = TEME
TIME_SYSTEM    = UTC
MEAN_ELEMENT_THEORY = SGP/SGP4

EPOCH          = 2026-03-21T12:00:00.999648
MEAN_MOTION    = 15.77293352
ECCENTRICITY   = .00018986
INCLINATION    = 97.2841
RA_OF_ASC_NODE = 41.2342
ARG_OF_PERICENTER = 112.7132
MEAN_ANOMALY   = 112.4514

EPHEMERIS_TYPE = 0
CLASSIFICATION_TYPE = U
NORAD_CAT_ID   = 68110
ELEMENT_SET_NO = 999
REV_AT_EPOCH   = 330
BSTAR          = -.13249884E-1
MEAN_MOTION_DOT = -.189163E-1
MEAN_MOTION_DDOT = 0

CCSDS_OMM_VERS = 2.0
CREATION_DATE  = 
ORIGINATOR     = 

OBJECT_NAME    = STARLINK-36791
OBJECT_ID      = 2026-044L
CENTER_NAME    = EARTH
REF_FRAME      = TEME
TIME_SYSTEM    = UTC
MEAN_ELEMENT_THEORY = SGP/SGP4

EPOCH          = 2026-03-21T12:00:00.999648
MEAN_MOTION    = 15.78023311
ECCENTRICITY   = .00015458
INCLINATION    = 97.2839
RA_OF_ASC_NODE = 41.2381
ARG_OF_PERICENTER = 100.9386
MEAN_ANOMALY   = 134.7291

EPHEMERIS_TYPE = 0
CLASSIFICATION_TYPE = U
NORAD_CAT_ID   = 68111
ELEMENT_SET_NO = 999
REV_AT_EPOCH   = 325
BSTAR          = -.13408239E-1
MEAN_MOTION_DOT = -.1965927E-1
MEAN_MOTION_DDOT = 0

CCSDS_OMM_VERS = 2.0
CREATION_DATE  = 
ORIGINATOR     = 

OBJECT_NAME    = STARLINK-36893
OBJECT_ID      = 2026-044M
CENTER_NAME    = EARTH
REF_FRAME      = TEME
TIME_SYSTEM    = UTC
MEAN_ELEMENT_THEORY = SGP/SGP4

EPOCH          = 2026-03-21T12:00:00.999648
MEAN_MOTION    = 15.78372671
ECCENTRICITY   = .00017354
INCLINATION    = 97.2837
RA_OF_ASC_NODE = 41.2391
ARG_OF_PERICENTER = 98.9386
MEAN_ANOMALY   = 141.8185

EPHEMERIS_TYPE = 0
CLASSIFICATION_TYPE = U
NORAD_CAT_ID   = 68112
ELEMENT_SET_NO = 999
REV_AT_EPOCH   = 330
BSTAR          = -.13090545E-1
MEAN_MOTION_DOT = -.1952222E-1
MEAN_MOTION_DDOT = 0

CCSDS_OMM_VERS = 2.0
CREATION_DATE  = 
ORIGINATOR     = 

OBJECT_NAME    = STARLINK-36937
OBJECT_ID      = 2026-044N
CENTER_NAME    = EARTH
REF_FRAME      = TEME
TIME_SYSTEM    = UTC
MEAN_ELEMENT_THEORY = SGP/SGP4

EPOCH          = 2026-03-21T12:00:00.999648
MEAN_MOTION    = 15.77843121
ECCENTRICITY   = .00018844
INCLINATION    = 97.2842
RA_OF_ASC_NODE = 41.2421
ARG_OF_PERICENTER = 113.4522
MEAN_ANOMALY   = 134.6136

EPHEMERIS_TYPE = 0
CLASSIFICATION_TYPE = U
NORAD_CAT_ID   = 68113
ELEMENT_SET_NO = 999
REV_AT_EPOCH   = 325
BSTAR          = -.13405869E-1
MEAN_MOTION_DOT = -.195224E-1
MEAN_MOTION_DDOT = 0

CCSDS_OMM_VERS = 2.0
CREATION_DATE  = 
ORIGINATOR     = 

OBJECT_NAME    = STARLINK-36229
OBJECT_ID      = 2026-044P
CENTER_NAME    = EARTH
REF_FRAME      = TEME
TIME_SYSTEM    = UTC
MEAN_ELEMENT_THEORY = SGP/SGP4

EPOCH          = 2026-03-21T12:00:00.999648
MEAN_MOTION    = 15.78319130
ECCENTRICITY   = .00017339
INCLINATION    = 97.2839
RA_OF_ASC_NODE = 41.2398
ARG_OF_PERICENTER = 104.4587
MEAN_ANOMALY   = 140.4449

EPHEMERIS_TYPE = 0
CLASSIFICATION_TYPE = U
NORAD_CAT_ID   = 68114
ELEMENT_SET_NO = 999
REV_AT_EPOCH   = 330
BSTAR          = -.13126118E-1
MEAN_MOTION_DOT = -.1952716E-1
MEAN_MOTION_DDOT = 0

CCSDS_OMM_VERS = 2.0
CREATION_DATE  = 
ORIGINATOR     = 

OBJECT_NAME    = STARLINK-36392
OBJECT_ID      = 2026-044Q
CENTER_NAME    = EARTH
REF_FRAME      = TEME
TIME_SYSTEM    = UTC
MEAN_ELEMENT_THEORY = SGP/SGP4

EPOCH          = 2026-03-21T12:00:00.999648
MEAN_MOTION    = 15.78208863
ECCENTRICITY   = .00020117
INCLINATION    = 97.2841
RA_OF_ASC_NODE = 41.2441
ARG_OF_PERICENTER = 104.6939
MEAN_ANOMALY   = 148.5080

EPHEMERIS_TYPE = 0
CLASSIFICATION_TYPE = U
NORAD_CAT_ID   = 68115
ELEMENT_SET_NO = 999
REV_AT_EPOCH   = 330
BSTAR          = -.13251367E-1
MEAN_MOTION_DOT = -.1960651E-1
MEAN_MOTION_DDOT = 0

