STARLINK-37041          
1 68104U 26044D   26080.50001157 -.01604607  00000+0 -11610-1 0  9995
2 68104  97.2840  41.2267 0001799  87.1805 118.9389 15.76560734  3251
STARLINK-37021          
1 68105U 26044E   26080.50001157 -.01915213  00000+0 -13344-1 0  9990
2 68105  97.2840  41.2283 0001965  97.3299 115.5244 15.77453318  3258
STARLINK-37024          
1 68106U 26044F   26080.50001157 -.01975689  00000+0 -13594-1 0  9991
2 68106  97.2838  41.2303 0001912 114.2196 103.8823 15.77840043  3254
STARLINK-37005          
1 68107U 26044G   26080.50001157 -.01923095  00000+0 -13586-1 0  9997
2 68107  97.2841  41.2247 0001676  96.3407 107.0550 15.77161292  3253
STARLINK-37017          
1 68108U 26044H   26080.50001157 -.01937239  00000+0 -13583-1 0  9990
2 68108  97.2839  41.2324 0002070 100.6476 120.4208 15.77349664  3251
STARLINK-36833          
1 68109U 26044J   26080.50001157 -.01898033  00000+0 -13333-1 0  9992
2 68109  97.2840  41.2354 0002082 115.0589 114.2017 15.77238511  3308
STARLINK-36830          
1 68110U 26044K   26080.50001157 -.01891630  00000+0 -13250-1 0  9998
2 68110  97.2841  41.2342 0001898 112.7132 112.4514 15.77293352  3306
STARLINK-36791          
1 68111U 26044L   26080.50001157 -.01965927  00000+0 -13408-1 0  9995
2 68111  97.2839  41.2381 0001545 100.9386 134.7291 15.78023311  3256
STARLINK-36893          
1 68112U 26044M   26080.50001157 -.01952222  00000+0 -13091-1 0  9998
2 68112  97.2837  41.2391 0001735  98.9386 141.8185 15.78372671  3306
STARLINK-36937          
1 68113U 26044N   26080.50001157 -.01952240  00000+0 -13406-1 0  9999
2 68113  97.2842  41.2421 0001884 113.4522 134.6136 15.77843121  3259
STARLINK-36229          
1 68114U 26044P   26080.50001157 -.01952716  00000+0 -13126-1 0  9997
2 68114  97.2839  41.2398 0001733 104.4587 140.4449 15.78319130  3300
STARLINK-36392          
1 68115U 26044Q   26080.50001157 -.01960651  00000+0 -13251-1 0  9994
2 68115  97.2841  41.2441 0002011 104.6939 148.5080 15.78208863  3306
